{"type": "FeatureCollection", "features": [ {"type": "Feature", "properties": {"norad_id": 40697, "name": "SENTINEL-2A", "group": "resource", "lat": -19.577551776318113, "lon": -128.68597289502313, "alt_km": 794.2817538768804, "timestamp": "2025-12-07T18:50:16.381535+00:00", "meta": {"OBJECT_NAME": "SENTINEL-2A", "OBJECT_ID": "2015-028A", "EPOCH": "2025-12-07T07:50:15.699840", "MEAN_MOTION": 14.30824228, "ECCENTRICITY": 0.00010258, "INCLINATION": 98.57, "RA_OF_ASC_NODE": 53.9365, "ARG_OF_PERICENTER": 94.4949, "MEAN_ANOMALY": 265.6352, "EPHEMERIS_TYPE": 0, "CLASSIFICATION_TYPE": "U", "NORAD_CAT_ID": 40697, "ELEMENT_SET_NO": 999, "REV_AT_EPOCH": 54629, "BSTAR": 0.00014084413, "MEAN_MOTION_DOT": 3.26e-06, "MEAN_MOTION_DDOT": 0}, "tle": {"line1": "1 40697U 15028A   25341.32657060  .00000326  00000+0  14084-3 0  9996", "line2": "2 40697  98.5700  53.9365 0001025  94.4949 265.6352 14.30824228546294"}}, "geometry": {"type": "Point", "coordinates": [-128.68597289502313, -19.577551776318113]}}, {"type": "Feature", "properties": {"norad_id": 40701, "name": "GAOFEN-8", "group": "resource", "lat": 49.15522371229809, "lon": -11.321990246400912, "alt_km": 439.6992357539575, "timestamp": "2025-12-07T18:50:16.381545+00:00", "meta": {"OBJECT_NAME": "GAOFEN-8", "OBJECT_ID": "2015-030A", "EPOCH": "2025-12-07T07:20:44.499840", "MEAN_MOTION": 15.38280161, "ECCENTRICITY": 0.00113507, "INCLINATION": 97.691, "RA_OF_ASC_NODE": 159.1831, "ARG_OF_PERICENTER": 156.9225, "MEAN_ANOMALY": 203.2532, "EPHEMERIS_TYPE": 0, "CLASSIFICATION_TYPE": "U", "NORAD_CAT_ID": 40701, "ELEMENT_SET_NO": 999, "REV_AT_EPOCH": 58187, "BSTAR": 0.00072133599, "MEAN_MOTION_DOT": 0.00027244, "MEAN_MOTION_DDOT": 0}, "tle": {"line1": "1 40701U 15030A   25341.30607060  .00027244  00000+0  72134-3 0  9996", "line2": "2 40701  97.6910 159.1831 0011350 156.9225 203.2532 15.38280161581875"}}, "geometry": {"type": "Point", "coordinates": [-11.321990246400912, 49.15522371229809]}}, {"type": "Feature", "properties": {"norad_id": 40718, "name": "CARBONITE 1 (CBNT-1)", "group": "resource", "lat": -26.117991287592638, "lon": 166.8208352109981, "alt_km": 633.5567713482433, "timestamp": "2025-12-07T18:50:16.381555+00:00", "meta": {"OBJECT_NAME": "CARBONITE 1 (CBNT-1)", "OBJECT_ID": "2015-032D", "EPOCH": "2025-12-07T05:59:58.448256", "MEAN_MOTION": 14.82704507, "ECCENTRICITY": 0.00140764, "INCLINATION": 97.6402, "RA_OF_ASC_NODE": 162.5362, "ARG_OF_PERICENTER": 199.7344, "MEAN_ANOMALY": 160.3327, "EPHEMERIS_TYPE": 0, "CLASSIFICATION_TYPE": "U", "NORAD_CAT_ID": 40718, "ELEMENT_SET_NO": 999, "REV_AT_EPOCH": 56089, "BSTAR": 0.0005362377, "MEAN_MOTION_DOT": 4.285e-05, "MEAN_MOTION_DDOT": 0}, "tle": {"line1": "1 40718U 15032D   25341.24998204  .00004285  00000+0  53624-3 0  9995", "line2": "2 40718  97.6402 162.5362 0014076 199.7344 160.3327 14.82704507560898"}}, "geometry": {"type": "Point", "coordinates": [166.8208352109981, -26.117991287592638]}}, {"type": "Feature", "properties": {"norad_id": 40878, "name": "YAOGAN-27", "group": "resource", "lat": 58.48372742225533, "lon": 168.5277504579927, "alt_km": 1199.8621947128413, "timestamp": "2025-12-07T18:50:16.381565+00:00", "meta": {"OBJECT_NAME": "YAOGAN-27", "OBJECT_ID": "2015-040A", "EPOCH": "2025-12-07T07:16:58.828224", "MEAN_MOTION": 13.16059991, "ECCENTRICITY": 0.00076757, "INCLINATION": 100.1007, "RA_OF_ASC_NODE": 331.1695, "ARG_OF_PERICENTER": 300.132, "MEAN_ANOMALY": 59.9033, "EPHEMERIS_TYPE": 0, "CLASSIFICATION_TYPE": "U", "NORAD_CAT_ID": 40878, "ELEMENT_SET_NO": 999, "REV_AT_EPOCH": 49242, "BSTAR": 8.3268e-05, "MEAN_MOTION_DOT": -1.1e-07, "MEAN_MOTION_DDOT": 0}, "tle": {"line1": "1 40878U 15040A   25341.30345866 -.00000011  00000+0  83268-4 0  9990", "line2": "2 40878 100.1007 331.1695 0007675 300.1320  59.9033 13.16059991492424"}}, "geometry": {"type": "Point", "coordinates": [168.5277504579927, 58.48372742225533]}}, {"type": "Feature", "properties": {"norad_id": 40894, "name": "GAOFEN-9 01", "group": "resource", "lat": -77.33015500549789, "lon": 164.21074651786702, "alt_km": 646.5187658860114, "timestamp": "2025-12-07T18:50:16.381576+00:00", "meta": {"OBJECT_NAME": "GAOFEN-9 01", "OBJECT_ID": "2015-047A", "EPOCH": "2025-12-07T06:19:46.564896", "MEAN_MOTION": 14.82401881, "ECCENTRICITY": 0.00287458, "INCLINATION": 97.6545, "RA_OF_ASC_NODE": 20.4557, "ARG_OF_PERICENTER": 51.6435, "MEAN_ANOMALY": 308.7356, "EPHEMERIS_TYPE": 0, "CLASSIFICATION_TYPE": "U", "NORAD_CAT_ID": 40894, "ELEMENT_SET_NO": 999, "REV_AT_EPOCH": 55175, "BSTAR": 0.00029371639, "MEAN_MOTION_DOT": 2.318e-05, "MEAN_MOTION_DDOT": 0}, "tle": {"line1": "1 40894U 15047A   25341.26373339  .00002318  00000+0  29372-3 0  9992", "line2": "2 40894  97.6545  20.4557 0028745  51.6435 308.7356 14.82401881551758"}}, "geometry": {"type": "Point", "coordinates": [164.21074651786702, -77.33015500549789]}}, {"type": "Feature", "properties": {"norad_id": 41026, "name": "YAOGAN-28", "group": "resource", "lat": 25.255528761860088, "lon": 116.25999088762671, "alt_km": 496.15547313796833, "timestamp": "2025-12-07T18:50:16.381586+00:00", "meta": {"OBJECT_NAME": "YAOGAN-28", "OBJECT_ID": "2015-064A", "EPOCH": "2025-12-07T07:41:49.832160", "MEAN_MOTION": 15.24216998, "ECCENTRICITY": 0.00121564, "INCLINATION": 97.281, "RA_OF_ASC_NODE": 119.267, "ARG_OF_PERICENTER": 143.7882, "MEAN_ANOMALY": 216.4181, "EPHEMERIS_TYPE": 0, "CLASSIFICATION_TYPE": "U", "NORAD_CAT_ID": 41026, "ELEMENT_SET_NO": 999, "REV_AT_EPOCH": 56142, "BSTAR": 0.00055156368, "MEAN_MOTION_DOT": 0.00013416, "MEAN_MOTION_DDOT": 0}, "tle": {"line1": "1 41026U 15064A   25341.32071565  .00013416  00000+0  55156-3 0  9992", "line2": "2 41026  97.2810 119.2670 0012156 143.7882 216.4181 15.24216998561424"}}, "geometry": {"type": "Point", "coordinates": [116.25999088762671, 25.255528761860088]}}, {"type": "Feature", "properties": {"norad_id": 41038, "name": "YAOGAN-29", "group": "resource", "lat": 40.030444588559824, "lon": -168.2557047052648, "alt_km": 617.4363320703924, "timestamp": "2025-12-07T18:50:16.381596+00:00", "meta": {"OBJECT_NAME": "YAOGAN-29", "OBJECT_ID": "2015-069A", "EPOCH": "2025-12-07T06:52:30.261504", "MEAN_MOTION": 14.82873565, "ECCENTRICITY": 4.496e-05, "INCLINATION": 98.0223, "RA_OF_ASC_NODE": 4.4405, "ARG_OF_PERICENTER": 355.0125, "MEAN_ANOMALY": 5.1083, "EPHEMERIS_TYPE": 0, "CLASSIFICATION_TYPE": "U", "NORAD_CAT_ID": 41038, "ELEMENT_SET_NO": 999, "REV_AT_EPOCH": 54218, "BSTAR": 0.00011843946, "MEAN_MOTION_DOT": 9.05e-06, "MEAN_MOTION_DDOT": 0}, "tle": {"line1": "1 41038U 15069A   25341.28646136  .00000905  00000+0  11844-3 0  9992", "line2": "2 41038  98.0223   4.4405 0000449 355.0125   5.1083 14.82873565542183"}}, "geometry": {"type": "Point", "coordinates": [-168.2557047052648, 40.030444588559824]}}, {"type": "Feature", "properties": {"norad_id": 41167, "name": "KENT RIDGE 1", "group": "resource", "lat": -8.459712437980631, "lon": -145.88100287674115, "alt_km": 499.86193499776164, "timestamp": "2025-12-07T18:50:16.381606+00:00", "meta": {"OBJECT_NAME": "KENT RIDGE 1", "OBJECT_ID": "2015-077B", "EPOCH": "2025-12-06T22:32:12.951456", "MEAN_MOTION": 15.21567192, "ECCENTRICITY": 0.00085732, "INCLINATION": 14.9795, "RA_OF_ASC_NODE": 254.1844, "ARG_OF_PERICENTER": 48.4513, "MEAN_ANOMALY": 311.6543, "EPHEMERIS_TYPE": 0, "CLASSIFICATION_TYPE": "U", "NORAD_CAT_ID": 41167, "ELEMENT_SET_NO": 999, "REV_AT_EPOCH": 55175, "BSTAR": 0.0002724168, "MEAN_MOTION_DOT": 7.094e-05, "MEAN_MOTION_DDOT": 0}, "tle": {"line1": "1 41167U 15077B   25340.93903879  .00007094  00000+0  27242-3 0  9990", "line2": "2 41167  14.9795 254.1844 0008573  48.4513 311.6543 15.21567192551757"}}, "geometry": {"type": "Point", "coordinates": [-145.88100287674115, -8.459712437980631]}}, {"type": "Feature", "properties": {"norad_id": 41194, "name": "GAOFEN-4", "group": "resource", "lat": 0.08345771690571215, "lon": 105.03038480172548, "alt_km": 35783.996011308955, "timestamp": "2025-12-07T18:50:16.381618+00:00", "meta": {"OBJECT_NAME": "GAOFEN-4", "OBJECT_ID": "2015-083A", "EPOCH": "2025-12-07T02:48:38.666880", "MEAN_MOTION": 1.00271915, "ECCENTRICITY": 0.00035956, "INCLINATION": 0.1556, "RA_OF_ASC_NODE": 80.9701, "ARG_OF_PERICENTER": 105.7672, "MEAN_ANOMALY": 37.2751, "EPHEMERIS_TYPE": 0, "CLASSIFICATION_TYPE": "U", "NORAD_CAT_ID": 41194, "ELEMENT_SET_NO": 999, "REV_AT_EPOCH": 3660, "BSTAR": 0, "MEAN_MOTION_DOT": -3.3e-06, "MEAN_MOTION_DDOT": 0}, "tle": {"line1": "1 41194U 15083A   25341.11711420 -.00000330  00000+0  00000+0 0  9993", "line2": "2 41194   0.1556  80.9701 0003595 105.7672  37.2751  1.00271915 36609"}}, "geometry": {"type": "Point", "coordinates": [105.03038480172548, 0.08345771690571215]}}, {"type": "Feature", "properties": {"norad_id": 41240, "name": "JASON-3", "group": "resource", "lat": 23.473048957342876, "lon": 179.37510448115256, "alt_km": 1311.8145233191126, "timestamp": "2025-12-07T18:50:16.381630+00:00", "meta": {"OBJECT_NAME": "JASON-3", "OBJECT_ID": "2016-002A", "EPOCH": "2025-12-07T05:39:19.950048", "MEAN_MOTION": 12.87626278, "ECCENTRICITY": 0.00071293, "INCLINATION": 66.0391, "RA_OF_ASC_NODE": 169.3962, "ARG_OF_PERICENTER": 270.507, "MEAN_ANOMALY": 89.5132, "EPHEMERIS_TYPE": 0, "CLASSIFICATION_TYPE": "U", "NORAD_CAT_ID": 41240, "ELEMENT_SET_NO": 999, "REV_AT_EPOCH": 46253, "BSTAR": 7.9894815e-05, "MEAN_MOTION_DOT": -4.2e-07, "MEAN_MOTION_DDOT": 0}, "tle": {"line1": "1 41240U 16002A   25341.23564757 -.00000042  00000+0  79895-4 0  9992", "line2": "2 41240  66.0391 169.3962 0007129 270.5070  89.5132 12.87626278462531"}}, "geometry": {"type": "Point", "coordinates": [179.37510448115256, 23.473048957342876]}}]}